GPS BII-02  (PRN 02)    
1 20061U 89044A   02093.30609284 -.00000018  00000-0  00000-0 0  2847
2 20061  53.4338 198.9168 0227259 248.0728 109.4935  2.00754319 93900
GPS BII-05  (PRN 17)    
1 20361U 89097A   02092.84319729 -.00000078  00000-0  00000-0 0   729
2 20361  56.0941 330.1572 0137771 185.6115 174.2613  2.00564804 80745
GPS BII-08  (PRN 21)    
1 20724U 90068A   02092.96496944 -.00000098  00000-0  00000-0 0   902
2 20724  56.1304  24.2658 0182139 226.2233 132.2584  2.00569227 83882
GPS BII-09  (PRN 15)    
1 20830U 90088A   02092.86283726 -.00000075  00000-0  00000-0 0   289
2 20830  55.9870 327.8356 0080306 104.9041 256.0262  2.00569956 84523
GPS BIIA-10 (PRN 23)    
1 20959U 90103A   02093.85871764 -.00000098  00000-0  00000-0 0   717
2 20959  56.3341  26.6914 0161049 259.8029  98.3722  2.00589819 83131
GPS BIIA-11 (PRN 24)    
1 21552U 91047A   02089.76507677 -.00000062  00000-0  00000-0 0  1193
2 21552  56.1962 326.3425 0094630 270.1977 130.1935  2.00562539 78645
GPS BIIA-12 (PRN 25)    
1 21890U 92009A   02091.16604878  .00000007  00000-0  00000-0 0   721
2 21890  53.7955 139.7830 0098963 253.0879 105.8953  2.00568539 74040
GPS BIIA-14 (PRN 26)    
1 22014U 92039A   02092.91023514 -.00000013  00000-0  00000-0 0  8804
2 22014  55.6497  83.9869 0133558  18.3866 342.0889  2.00573171 64849
GPS BIIA-15 (PRN 27)    
1 22108U 92058A   02093.32717773 -.00000011  00000-0  10000-3 0  8994
2 22108  54.0506 141.0971 0161403 219.9538 138.9108  2.00568533 70032
GPS BIIA-16 (PRN 01)    
1 22231U 92079A   02093.20469332 -.00000012  00000-0  00000-0 0  9837
2 22231  55.4813  84.8923 0055704 263.4745  95.8927  2.00564439 68607
GPS BIIA-17 (PRN 29)    
1 22275U 92089A   02092.98237200 -.00000016  00000-0  00000-0 0  8548
2 22275  55.4693  82.2634 0085850 254.2857 104.7668  2.00778401 68012
GPS BIIA-18 (PRN 22)    
1 22446U 93007A   02092.27458889 -.00000005  00000-0  00000-0 0  9324
2 22446  53.4051 199.7346 0149268  43.9985 317.2126  2.00560187 66985
GPS BIIA-19 (PRN 31)    
1 22581U 93017A   02093.41600648  .00000014  00000-0  14325-5 0  5699
2 22581  54.0015 261.6397 0107689  50.7290 310.1896  2.00552941 66067
GPS BIIA-20 (PRN 07)    
1 22657U 93032A   02093.54920609  .00000014  00000-0  00000-0 0  9083
2 22657  54.0291 261.6488 0122212 248.3186 110.3436  2.00568090 61399
GPS BIIA-21 (PRN 09)    
1 22700U 93042A   02093.02120375 -.00000010  00000-0  00000-0 0  5104
2 22700  54.2085 142.2280 0127443  46.1386 314.9753  2.00561373 64183
GPS BIIA-22 (PRN 05)    
1 22779U 93054A   02093.60587260 -.00000021  00000-0  00000-0 0  7729
2 22779  53.6117 200.1519 0034983  29.3756 330.8305  2.00552953 62954
GPS BIIA-23 (PRN 04)    
1 22877U 93068A   02093.15103321 -.00000071  00000-0  00000-0 0  5740
2 22877  55.6160 325.1376 0059307 339.7282  20.0678  2.00566684 61834
GPS BIIA-24 (PRN 06)    
1 23027U 94016A   02089.74080361 -.00000002  00000-0  00000-0 0  6240
2 23027  53.9291 263.4941 0066620 234.4189 124.9405  2.00548117 59079
GPS BIIA-25 (PRN 03)    
1 23833U 96019A   02092.37027348  .00000011  00000-0  00000-0 0   297
2 23833  53.5062 260.6792 0030306  29.8662 330.2737  2.00560354 44108
GPS BIIA-26 (PRN 10)    
1 23953U 96041A   02093.79728246 -.00000101  00000-0  00000-0 0  1806
2 23953  56.1586  23.8955 0049702   3.5156 356.5137  2.00553129 41922
GPS BIIA-27 (PRN 30)    
1 24320U 96056A   02093.14276259 -.00000013  00000-0  00000-0 0   184
2 24320  54.0180 202.2122 0060065  77.3899 283.2859  2.00574811 40573
GPS BIIR-02 (PRN 13)    
1 24876U 97035A   02093.24216090 -.00000012  00000-0  00000-0 0  9421
2 24876  55.7238  83.7205 0019439 357.2136   2.7766  2.00574258 34443
GPS BIIA-28 (PRN 08)    
1 25030U 97067A   02093.37409829 -.00000012  00000-0  00000-0 0  8123
2 25030  54.9886 145.4711 0079812 122.9982 237.8385  2.00562379 32347
GPS BIIR-03 (PRN 11)    
1 25933U 99055A   02093.02022143 -.00000068  00000-0  00000+0 0  5718
2 25933  52.6166 320.1368 0007590 288.8925  71.0573  2.00561981 18257
GPS BIIR-04 (PRN 20)    
1 26360U 00025A   02093.11758832 -.00000101  00000-0  00000+0 0  5395
2 26360  55.2138  23.4974 0016991 112.7376 247.4431  2.00567426 13950
GPS BIIR-05 (PRN 28)    
1 26407U 00040A   02093.45620057 -.00000015  00000-0  00000+0 0  5527
2 26407  54.9506 203.7843 0062790 219.5748 139.9679  2.00563134 12637
GPS BIIR-06 (PRN 14)    
1 26605U 00071A   02093.06048255 -.00000014  00000-0  00000+0 0  4610
2 26605  55.4166  83.4377 0023180 316.0734  43.7339  2.00556890 10227
GPS BIIR-07 (PRN 18)    
1 26690U 01004A   02092.92618895 -.00000097  00000-0  00000+0 0  3843
2 26690  55.1703  26.4882 0023804 176.0686 183.9451  2.00562815  8634
